[{"OBJECT_NAME":"STARLINK-3724","OBJECT_ID":"2022-041AW","EPOCH":"2026-03-09T09:36:04.916160","MEAN_MOTION":15.08841424,"ECCENTRICITY":0.0001474,"INCLINATION":53.2173,"RA_OF_ASC_NODE":100.5251,"ARG_OF_PERICENTER":86.0377,"MEAN_ANOMALY":274.0784,"EPHEMERIS_TYPE":0,"CLASSIFICATION_TYPE":"U","NORAD_CAT_ID":52305,"ELEMENT_SET_NO":999,"REV_AT_EPOCH":21446,"BSTAR":0.00040370289,"MEAN_MOTION_DOT":6.143e-5,"MEAN_MOTION_DDOT":0},{"OBJECT_NAME":"FENGYUN 1C DEB","OBJECT_ID":"1999-025DZE","EPOCH":"2026-02-28T06:22:54.338880","MEAN_MOTION":15.08907087,"ECCENTRICITY":0.00232464,"INCLINATION":99.4552,"RA_OF_ASC_NODE":173.2368,"ARG_OF_PERICENTER":218.3208,"MEAN_ANOMALY":141.6363,"EPHEMERIS_TYPE":0,"CLASSIFICATION_TYPE":"U","NORAD_CAT_ID":36684,"ELEMENT_SET_NO":999,"REV_AT_EPOCH":67065,"BSTAR":0.0055309563,"MEAN_MOTION_DOT":0.00088715,"MEAN_MOTION_DDOT":0}]
